SUOMI NPP               
1 37849U 11061A   26155.72352727  .00000101  00000+0  69015-4 0  9990
2 37849  98.7951  96.6850 0002187  33.5911 326.5403 14.19514710756673
YAOGAN-12               
1 37875U 11066B   26155.87669242  .00007284  00000+0  28195-3 0  9995
2 37875  97.1146 195.0241 0007984 269.6143  90.4181 15.26438309810161
BEIDOU-2 M4             
1 38251U 12018B   26155.23396757 -.00000059  00000+0  00000+0 0  9995
2 38251  55.6701 304.5261 0011084 278.0259  81.8322  1.86229800 95704
ARIRANG-3 (KOMPSAT-3)   
1 38338U 12025B   26155.85201822  .00000553  00000+0  11909-3 0  9997
2 38338  98.1171 113.5254 0006082 141.4046 218.7592 14.62195220749546
METOP-B                 
1 38771U 12049A   26155.65995525  .00000140  00000+0  83903-4 0  9998
2 38771  98.6509 207.4085 0002917  47.9914 312.1512 14.21429320711488
SJ-9A                   
1 38860U 12056A   26155.70277580  .00001249  00000+0  15024-3 0  9994
2 38860  97.6702 128.1067 0024187 300.5026  59.3802 14.85448284697738
COSMOS 2484 (RODNIK-S 6)
1 39059U 13001C   26155.83056076  .00000031  00000+0  14968-3 0  9999
2 39059  82.5024 229.5740 0027281  62.8631 297.5226 12.42938638607028
SARAL                   
1 39086U 13009A   26155.75069955  .00000086  00000+0  47660-4 0  9994
2 39086  98.5557 342.4756 0001416   2.9845 357.1348 14.32852873693820
STRAND-1                
1 39090U 13009E   26155.03670315  .00000293  00000+0  11292-3 0  9999
2 39090  98.3918 335.5952 0007387 270.6143  89.4198 14.37155097695170
BRITE-AUSTRIA           
1 39091U 13009F   26155.74043161  .00000204  00000+0  84090-4 0  9990
2 39091  98.3992 335.4846 0008969 278.5862  81.4309 14.36537037695269
GAOFEN-1                
1 39150U 13018A   26155.86486834 -.00000082  00000+0 -44377-5 0  9998
2 39150  97.9095 228.1825 0016093 309.8191  50.1602 14.76521802706426
NEE-01 PEGASO           
1 39151U 13018B   26154.46520451  .00003190  00000+0  30780-3 0  9990
2 39151  98.1207 298.1637 0012177 203.9081 156.1574 14.93586684708654
PROBA-V                 
1 39159U 13021A   26155.46788588  .00000088  00000+0  56508-4 0  9990
2 39159  98.3578 134.7029 0004546 154.6484 205.4920 14.23594218679302
ARIRANG-5 (KOMPSAT-5)   
1 39227U 13042A   26155.79547094  .00002628  00000+0  19184-3 0  9990
2 39227  97.6201 342.6696 0003773 155.8482 204.2922 15.04544493701995
GONETS-M 5              
1 39249U 13048A   26155.87939343  .00000018  00000+0  55845-4 0  9997
2 39249  82.4829 351.0571 0015692 238.9080 121.0461 12.42891509577350
GONETS-M 7              
1 39251U 13048C   26155.84257597  .00000019  00000+0  63012-4 0  9997
2 39251  82.4897 353.9960 0016494 240.3018 119.6421 12.42914326577307
FENGYUN 3C              
1 39260U 13052A   26155.81728595  .00000120  00000+0  82002-4 0  9993
2 39260  98.4980 130.2606 0015760  61.1665 299.1090 14.15752159656818
CASSIOPE                
1 39265U 13055A   26155.69236273  .00040540 -59447-6  44891-3 0  9994
2 39265  80.9144  81.8797 0296901 104.3072 259.1320 15.24063848665760
APRIZESAT 7             
1 39416U 13066A   26154.46842510  .00001374  00000+0  14142-3 0  9996
2 39416  97.7702 107.8862 0034277 256.3956 103.3444 14.91532678679184
ZACUBE-1 (TSHEPISOSAT)  
1 39417U 13066B   26154.94254392  .00004510  00000+0  35148-3 0  9999
2 39417  97.8107 117.2078 0039903 294.5657  65.1411 15.01095965678747
APRIZESAT 8             
1 39425U 13066K   26155.09268803  .00001269  00000+0  14319-3 0  9992
2 39425  97.8216 102.7439 0045204 330.7670  29.1018 14.87624717677722
